HST                     
1 20580U 90037B   25365.46963687  .00010435  00000+0  35945-3 0  9995
2 20580  28.4654 144.9753 0002588  81.6509 278.4380 15.28310198762860
POLAR                   
1 23802U 96013A   25356.65672833  .00000223  00000+0  00000+0 0  9990
2 23802  79.6414 229.0446 6294109 215.0528  79.7797  1.29846082142563
SWAS                    
1 25560U 98071A   25365.23712602  .00009288  00000+0  60565-3 0  9998
2 25560  69.8978 300.1921 0005376 192.0785 168.0250 15.08154038471937
CXO                     
1 25867U 99040B   26002.77389708  .00000599  00000+0  00000+0 0  9990
2 25867  53.4579 121.7282 8107581 310.8774   0.1301  0.37803565 16702
XMM-NEWTON              
1 25989U 99066A   25364.81549841  .00000106  00000+0  00000+0 0  9998
2 25989  65.3445 285.2108 4737987  67.8714   0.0978  0.50128856 22166
TERRA                   
1 25994U 99068A   25365.65850446  .00000918  00000+0  19649-3 0  9999
2 25994  97.9723  56.6462 0003191  56.1501 114.2185 14.60926556385146
CLUSTER II-FM7 (SAMBA)  
1 26410U 00041A   25365.75798066  .00005735  00000+0  00000+0 0  9995
2 26410 147.9712  27.2564 8794416 243.0225 359.6665  0.44857925 19564
CLUSTER II-FM8 (TANGO)  
1 26464U 00045B   26001.77602824  .00007639  00000+0  00000+0 0  9999
2 26464 148.2980  28.0624 8802517 243.7036 359.4956  0.44416819 19552
ODIN                    
1 26702U 01007A   25365.60072099  .00045586  00000+0  73955-3 0  9998
2 26702  97.4190  34.1331 0005235  65.0276 295.1520 15.52608399363256
TIMED                   
1 26998U 01055B   25365.65241950  .00002595  00000+0  24226-3 0  9997
2 26998  74.0673 212.2253 0000192 266.2858  93.8304 14.94754062305781
CORIOLIS                
1 27640U 03001A   25365.55772233  .00000315  00000+0  16900-3 0  9995
2 27640  98.7141   9.9977 0013644 340.0441  20.0200 14.19881057190431
SORCE                   
1 27651U 03004A   25365.38359091  .00007366  00000+0  55446-3 0  9995
2 27651  39.9895 138.2531 0017932 284.3828  75.4975 15.02452828246642
MOST                    
1 27843U 03031D   25365.59431192  .00000217  00000+0  11942-3 0  9995
2 27843  98.7067  10.6480 0010251  22.2953 337.8668 14.21276591166905
SCISAT 1                
1 27858U 03036A   25365.53597499  .00001813  00000+0  23756-3 0  9992
2 27858  73.9300 144.3847 0008588 250.8987 109.1260 14.81158833206620
SWIFT                   
1 28485U 04047A   25365.38819167  .00067037  00000+0  10432-2 0  9990
2 28485  20.5555  24.2943 0004897 157.5205 202.5453 15.52174392160612
HINODE (SOLAR-B)        
1 29479U 06041A   25365.63428060  .00001434  00000+0  25605-3 0  9994
2 29479  98.0639  19.2049 0018821  99.1282 261.2054 14.68338355 30283
SHIJIAN-6 02A (SJ-6 02A)
1 29505U 06046A   25365.62244488  .00014190  00000+0  77159-3 0  9992
2 29505  97.6611  40.4876 0003730  25.0179 335.1232 15.14582976 46882
SHIJIAN-6 02B (SJ-6 02B)
1 29506U 06046B   25365.62577660  .00004313  00000+0  34545-3 0  9992
2 29506  97.6917  31.0025 0012338 273.0528  86.9284 15.00626326 45601
FGRST (GLAST)           
1 33053U 08029A   25365.15196853  .00006724  00000+0  26568-3 0  9990
2 33053  25.5830 290.2795 0008576 143.3576 216.7549 15.22752426970183
SDO                     
1 36395U 10005A   25365.25061561 -.00000090  00000+0  00000+0 0  9997
2 36395  34.2982  88.9039 0000945 153.4109 205.6166  1.00268540 58379
CRYOSAT 2               
1 36508U 10013A   25365.60593794  .00000393  00000+0  96838-4 0  9993
2 36508  92.0248 236.7358 0002620  92.6038 267.5469 14.51905670833765
X-SAT                   
1 37389U 11015C   25365.57146396  .00000446  00000+0  20738-3 0  9996
2 37389  98.3326 345.7632 0015080 112.8374 247.4400 14.25138457763808
GCOM-W1 (SHIZUKU)       
1 38337U 12025A   25365.41958422  .00001285  00000+0  29564-3 0  9994
2 38337  98.2238 303.3868 0001403  86.2640  25.1906 14.57061384724604
NUSTAR                  
1 38358U 12031A   25365.66668981  .00012898  00000+0  78719-3 0  9997
2 38358   6.0242 208.8795 0007487 143.2890 354.5878 15.06672065  1307
NEOSSAT                 
1 39089U 13009D   25365.46994543  .00000456  00000+0  17226-3 0  9992
2 39089  98.4079 184.5366 0011565  31.5335 328.6542 14.35742414672672
BRITE-AUSTRIA           
1 39091U 13009F   25365.48183133  .00000480  00000+0  17827-3 0  9996
2 39091  98.3892 184.1198 0010685  26.7604 333.4132 14.36448669672971
IRIS                    
1 39197U 13033A   25365.52861967  .00003483  00000+0  40885-3 0  9999
2 39197  97.9387 200.2614 0025227 144.9071 215.3812 14.85366551675489
HISAKI (SPRINT-A)       
1 39253U 13049A   25365.35591703  .00000131  00000+0  91210-4 0  9994
2 39253  29.7213 353.2619 0136896  96.2491 265.3694 13.55523461608634
CASSIOPE                
1 39265U 13055A   25365.56102359  .00041526 -15166-6  54998-3 0  9993
2 39265  80.9201 268.4944 0334367 262.8876  93.4226 15.13022766642213
STSAT-3                 
1 39422U 13066G   25365.65249071  .00004682  00000+0  36570-3 0  9994
2 39422  97.6037 333.6276 0011627 243.7507 116.2523 15.01538960659052
SWARM B                 
1 39451U 13067A   25351.71023028  .00002957  00000+0  11017-3 0  9993
2 39451  87.7441  37.3525 0003127  82.9666 277.1938 15.27053080655532
SWARM A                 
1 39452U 13067B   25365.58216940  .00018204  00000+0  36022-3 0  9996
2 39452  87.3369 118.3238 0002409  95.1361 265.0173 15.46965809680301
SWARM C                 
1 39453U 13067C   25365.58208744  .00018245  00000+0  36105-3 0  9997
2 39453  87.3368 116.9085 0002427  95.1319 265.0217 15.46965339680260
BRITE-CA1 (TORONTO)     
1 40020U 14033L   25365.60250888  .00002202  00000+0  33924-3 0  9994
2 40020  97.9503 132.9222 0080433  93.4529 267.5883 14.72271914617553
OCO 2                   
1 40059U 14035A   25365.60180411  .00001117  00000+0  25808-3 0  9998
2 40059  98.2238 304.3101 0001507  92.8821 267.2550 14.57075592611647
BRITE-PL2 (HEWELIUSZ)   
1 40119U 14049B   25365.28975786  .00004142  00000+0  39587-3 0  9991
2 40119  97.8987 111.2492 0013369 309.6201  50.3837 14.93754647616377
MMS 1                   
1 40482U 15011A   25365.66668981 -.00000916  00000+0  00000+0 0  9992
2 40482  69.7412 351.1613 8480769 163.8187 131.7096  0.28365776  1311
MMS 2                   
1 40483U 15011B   25365.66668981 -.00000916  00000+0  00000+0 0  9993
2 40483  69.7383 351.1521 8482273 163.8352 131.6754  0.28365776  1313
MMS 3                   
1 40484U 15011C   25365.66668981 -.00000916  00000+0  00000+0 0  9994
2 40484  69.7434 351.1685 8482189 163.8309 131.6716  0.28365782  1315
MMS 4                   
1 40485U 15011D   25365.66668981 -.00000917  00000+0  00000+0 0  9996
2 40485  69.7436 351.1605 8483496 163.8177 131.7078  0.28365781  1316
ASTROSAT                
1 40930U 15052A   25365.42485408  .00002981  00000+0  28379-3 0  9996
2 40930   5.9964 282.5819 0007830 163.6041 196.4340 14.82075680554894
DAMPE                   
1 41173U 15078A   25365.60283406  .00001944  00000+0  69048-4 0  9995
2 41173  97.4548   5.3181 0011026 317.7936  42.2454 15.30227391558911
PISAT                   
1 41784U 16059B   25365.55908743  .00002677  00000+0  46635-3 0  9995
2 41784  97.8158   8.2858 0029817  23.7574 336.5001 14.68553765495130
HXMT (HUIYAN)           
1 42758U 17034A   25365.56413428  .00009996  00000+0  50880-3 0  9991
2 42758  43.0155  35.1514 0031973 166.3332 193.8388 15.16495526472199
FLYING LAPTOP           
1 42831U 17042G   25365.68088576  .00006136  00000+0  49635-3 0  9996
2 42831  97.4245 163.4398 0013801 343.3542  16.7227 15.00041638461332
ZHANGHENG 1-01 (CSES-1) 
1 43194U 18015C   25365.62312337  .00002211  00000+0  10339-3 0  9998
2 43194  97.6658 163.1286 0019243 132.1261 228.1614 15.20720586439170
SALSAT                  
1 46495U 20068K   25365.54166319  .00013488  00000+0  51563-3 0  9996
2 46495  97.8791 353.8339 0010840 159.8516 200.3152 15.26685255289752
IXPE                    
1 49954U 21121A   25365.66668981  .00015390  00000+0  90637-3 0  9994
2 49954   0.2280 142.2291 0007731  68.8496  74.5920 15.08223893  5794
